GPS BIIF-11             
1 41019U 15062A   26114.92947431 -.00000091  00000+0  00000+0 0  9991
2 41019  56.9258  32.8632 0111251 231.5279 127.4763  2.00566987 76765
ELEKTRO-L 2             
1 41105U 15074A   26115.70682659 -.00000127  00000+0  00000+0 0  9995
2 41105   6.5646  71.1540 0002298 254.2871 128.2279  1.00270542 37987
GSAT0209 (GALILEO 12)   
1 41174U 15079A   26115.24610591  .00000046  00000+0  00000+0 0  9990
2 41174  55.7962 102.7123 0005679 329.0159  30.9454  1.70474059 63871
GSAT0208 (GALILEO 11)   
1 41175U 15079B   26113.70661183  .00000044  00000+0  00000+0 0  9991
2 41175  55.7940 102.7517 0005073 330.2209  29.7424  1.70473916 64261
GPS BIIF-12             
1 41328U 16007A   26115.01720695  .00000037  00000+0  00000+0 0  9995
2 41328  55.4917  91.5661 0096117 247.0721 111.9007  2.00554180 74775
GSAT0211 (GALILEO 14)   
1 41549U 16030A   26114.41727357 -.00000030  00000+0  00000+0 0  9995
2 41549  55.1119 223.1731 0002524 359.1559   0.8397  1.70474087 61750
GSAT0210 (GALILEO 13)   
1 41550U 16030B   26115.26112393 -.00000036  00000+0  00000+0 0  9995
2 41550  55.1104 223.1480 0002810 225.6811 134.2889  1.70474037 61767
INSAT-3DR               
1 41752U 16054A   26115.98035965 -.00000090  00000+0  00000+0 0  9993
2 41752   0.1129  86.1844 0011660 195.1084 359.6159  1.00271318 35297
GSAT0207 (GALILEO 15)   
1 41859U 16069A   26113.19301128  .00000042  00000+0  00000+0 0  9991
2 41859  55.4647 102.6061 0005905 316.7510  43.1935  1.70473937 58467
GSAT0212 (GALILEO 16)   
1 41860U 16069B   26114.21967367  .00000044  00000+0  00000+0 0  9992
2 41860  55.4625 102.5729 0004645 340.5096  19.4658  1.70474155 58730
GSAT0213 (GALILEO 17)   
1 41861U 16069C   26115.17360778  .00000045  00000+0  00000+0 0  9993
2 41861  55.4662 102.5544 0005854 302.3888  57.5492  1.70474518 58614
GSAT0214 (GALILEO 18)   
1 41862U 16069D   26115.90630783  .00000045  00000+0  00000+0 0  9991
2 41862  55.4649 102.5269 0004911 307.4506  52.4995  1.70474260 58751
GOES 16                 
1 41866U 16071A   26115.90289280 -.00000104  00000+0  00000+0 0  9997
2 41866   0.2104  85.2605 0001541 248.4731 100.5078  1.00271074 34572
GSAT-17                 
1 42815U 17040B   26115.96518654 -.00000272  00000+0  00000+0 0  9991
2 42815   0.0167 250.7763 0004379  65.5646 338.6078  1.00274356 32267
GSAT0215 (GALILEO 19)   
1 43055U 17079A   26113.46347810 -.00000022  00000+0  00000+0 0  9990
2 43055  55.0907 223.0118 0001428 264.4741  95.5096  1.70474699 52058
GSAT0216 (GALILEO 20)   
1 43056U 17079B   26114.92781412 -.00000034  00000+0  00000+0 0  9996
2 43056  55.0895 222.9715 0002775 284.1808  75.7828  1.70474805 52091
GSAT0217 (GALILEO 21)   
1 43057U 17079C   26115.14858825 -.00000035  00000+0  00000+0 0  9996
2 43057  55.0882 222.9635 0002225 307.4520  52.5215  1.70474762 52083
